{
    "links": {
        "self": "http://www.neowsapp.com/rest/v1/neo/3789600?api_key=iIulBulltgU6a56xZRHN4H3l9WmuAYTsLGpBGhQ2"
    },
    "id": "3789600",
    "neo_reference_id": "3789600",
    "name": "(2017 WP12)",
    "designation": "2017 WP12",
    "nasa_jpl_url": "http://ssd.jpl.nasa.gov/sbdb.cgi?sstr=3789600",
    "absolute_magnitude_h": 24.4,
    "estimated_diameter": {
        "kilometers": {
            "estimated_diameter_min": 0.0350392641,
            "estimated_diameter_max": 0.0783501764
        },
        "meters": {
            "estimated_diameter_min": 35.0392641108,
            "estimated_diameter_max": 78.3501764334
        },
        "miles": {
            "estimated_diameter_min": 0.0217723826,
            "estimated_diameter_max": 0.0486845275
        },
        "feet": {
            "estimated_diameter_min": 114.9582192654,
            "estimated_diameter_max": 257.0543928497
        }
    },
    "is_potentially_hazardous_asteroid": false,
    "close_approach_data": [
        {
            "close_approach_date": "1976-01-03",
            "close_approach_date_full": "1976-Jan-03 03:21",
            "epoch_date_close_approach": 189487260000,
            "relative_velocity": {
                "kilometers_per_second": "9.4358837342",
                "kilometers_per_hour": "33969.1814430519",
                "miles_per_hour": "21107.1283249897"
            },
            "miss_distance": {
                "astronomical": "0.3672207012",
                "lunar": "142.8488527668",
                "kilometers": "54935434.719426444",
                "miles": "34135296.2599311672"
            },
            "orbiting_body": "Earth"
        },
        {
            "close_approach_date": "2007-09-09",
            "close_approach_date_full": "2007-Sep-09 06:45",
            "epoch_date_close_approach": 1189320300000,
            "relative_velocity": {
                "kilometers_per_second": "4.2545536511",
                "kilometers_per_hour": "15316.3931439246",
                "miles_per_hour": "9517.0110621236"
            },
            "miss_distance": {
                "astronomical": "1.6178550892",
                "lunar": "629.3456296988",
                "kilometers": "242027675.312980004",
                "miles": "150389023.8077878952"
            },
            "orbiting_body": "Juptr"
        },
        {
            "close_approach_date": "2014-02-10",
            "close_approach_date_full": "2014-Feb-10 05:49",
            "epoch_date_close_approach": 1392011340000,
            "relative_velocity": {
                "kilometers_per_second": "12.4441075842",
                "kilometers_per_hour": "44798.7873030322",
                "miles_per_hour": "27836.2242550424"
            },
            "miss_distance": {
                "astronomical": "0.0920531267",
                "lunar": "35.8086662863",
                "kilometers": "13770951.681160129",
                "miles": "8556872.5872186202"
            },
            "orbiting_body": "Mars"
        },
        {
            "close_approach_date": "2017-12-25",
            "close_approach_date_full": "2017-Dec-25 14:43",
            "epoch_date_close_approach": 1514212980000,
            "relative_velocity": {
                "kilometers_per_second": "5.1034189087",
                "kilometers_per_hour": "18372.308071428",
                "miles_per_hour": "11415.8377569381"
            },
            "miss_distance": {
                "astronomical": "0.1378081933",
                "lunar": "53.6073871937",
                "kilometers": "20615812.186228271",
                "miles": "12810071.6816052998"
            },
            "orbiting_body": "Earth"
        },
        {
            "close_approach_date": "2020-02-25",
            "close_approach_date_full": "2020-Feb-25 09:11",
            "epoch_date_close_approach": 1582621860000,
            "relative_velocity": {
                "kilometers_per_second": "3.522855142",
                "kilometers_per_hour": "12682.2785111411",
                "miles_per_hour": "7880.2746671032"
            },
            "miss_distance": {
                "astronomical": "1.234413165",
                "lunar": "480.186721185",
                "kilometers": "184665580.18395855",
                "miles": "114745870.68958599"
            },
            "orbiting_body": "Juptr"
        }
    ],
    "orbital_data": {
        "orbit_id": "7",
        "orbit_determination_date": "2018-01-18 06:53:21",
        "first_observation_date": "2017-11-18",
        "last_observation_date": "2018-01-06",
        "data_arc_in_days": 49,
        "observations_used": 25,
        "orbit_uncertainty": "6",
        "minimum_orbit_intersection": ".150593",
        "jupiter_tisserand_invariant": "3.167",
        "epoch_osculation": "2459000.5",
        "eccentricity": ".5651279105163199",
        "semi_major_axis": "2.601183092549359",
        "inclination": "1.67069009965277",
        "ascending_node_longitude": "160.6137163148524",
        "orbital_period": "1532.338842988058",
        "perihelion_distance": "1.131181926586561",
        "perihelion_argument": "292.10483318273",
        "aphelion_distance": "4.071184258512158",
        "perihelion_time": "2459647.528187201824",
        "mean_anomaly": "207.9904438508891",
        "mean_motion": ".2349349829819629",
        "equinox": "J2000",
        "orbit_class": {
            "orbit_class_type": "AMO",
            "orbit_class_description": "Near-Earth asteroid orbits similar to that of 1221 Amor",
            "orbit_class_range": "1.017 AU < q (perihelion) < 1.3 AU"
        }
    },
    "is_sentry_object": false
}